[{"OBJECT_NAME":"STARLINK-4151","OBJECT_ID":"2022-076BA","EPOCH":"2026-03-09T10:25:48.368640","MEAN_MOTION":15.08841144,"ECCENTRICITY":0.00013481,"INCLINATION":53.2166,"RA_OF_ASC_NODE":75.3144,"ARG_OF_PERICENTER":87.2856,"MEAN_ANOMALY":272.8291,"EPHEMERIS_TYPE":0,"CLASSIFICATION_TYPE":"U","NORAD_CAT_ID":53034,"ELEMENT_SET_NO":999,"REV_AT_EPOCH":20308,"BSTAR":6.2340276e-5,"MEAN_MOTION_DOT":7.04e-6,"MEAN_MOTION_DDOT":0},{"OBJECT_NAME":"THOR AGENA B DEB","OBJECT_ID":"1965-098J","EPOCH":"2026-03-09T15:55:33.898656","MEAN_MOTION":12.39065528,"ECCENTRICITY":0.1280637,"INCLINATION":79.7465,"RA_OF_ASC_NODE":159.9057,"ARG_OF_PERICENTER":252.7397,"MEAN_ANOMALY":243.9853,"EPHEMERIS_TYPE":0,"CLASSIFICATION_TYPE":"U","NORAD_CAT_ID":2153,"ELEMENT_SET_NO":999,"REV_AT_EPOCH":67470,"BSTAR":0.00058104,"MEAN_MOTION_DOT":1.819e-5,"MEAN_MOTION_DDOT":0}]
